0 SL-6 R/B(2)
1 15355U 84107D   13280.21489622 -.00000169  00000-0  00000+0 0  5630
2 15355 067.3666 149.2640 5636365 112.0504 024.4165 02.03367119215448
0 SL-6 R/B(2)
1 15355U 84107D   13283.56251956 -.00000013  00000-0  10000-3 0  5642
2 15355 067.3693 149.0788 5637014 111.9646 315.3239 02.03370103215515
0 SL-6 R/B(2)
1 15355U 84107D   13283.65225882 -.00000514  00000-0  00000+0 0  5642
2 15355 067.3665 149.0636 5635305 111.9607 021.0212 02.03366636215512
0 SL-6 R/B(2)
1 15355U 84107D   13287.00463180 -.00000584  00000-0  00000+0 0  5658
2 15355 067.3657 148.8586 5634436 111.8756 315.3824 02.03362078215583
0 SL-6 R/B(2)
1 15355U 84107D   13287.08015277 -.00000582  00000-0  00000+0 0  5665
2 15355 067.3663 148.8647 5634372 111.8716 010.6674 02.03362966215587
0 SL-6 R/B(2)
1 15355U 84107D   13293.14328456 -.00000128  00000-0  00000+0 0  5672
2 15355 067.3666 148.5141 5632860 111.7140 129.4954 02.03353286215705
